TEVEL2-5                
1 63214U 25052E   26068.96660006  .00021339  00000+0  71765-3 0  9991
2 63214  97.4013 325.3677 0004700  95.3936 264.7842 15.30817434 54919
STARLINK-34591          
1 64734U 25144L   26068.62101048  .00029402  00000+0  10016-2 0  9990
2 64734  53.1602 181.2038 0001347  69.0087 291.1057 15.30176240 39681
